HULIANWANG DIGUI-44     
1 65047U 25162E   26199.85833597 -.00000107  00000+0  36287-4 0  9991
2 65047  50.0002 152.0999 0001428 342.8866  17.1958 13.29318643 47583
HULIANWANG DIGUI-45     
1 65048U 25162F   26199.85008654 -.00000103  00000+0  45264-4 0  9991
2 65048  50.0032 152.1413 0000267 341.9535  18.1328 13.29327247 47573
HULIANWANG DIGUI-46     
1 65049U 25162G   26199.84175677 -.00000101  00000+0  49414-4 0  9990
2 65049  50.0050 152.1487 0000248 335.7293  24.3567 13.29327080 47575
HULIANWANG DIGUI-47     
1 65050U 25162H   26199.83340550 -.00000105  00000+0  41359-4 0  9999
2 65050  50.0014 152.0070 0000256 328.0253  32.0604 13.29326687 47574
HULIANWANG DIGUI-48     
1 65051U 25162J   26199.82504547 -.00000107  00000+0  36359-4 0  9993
2 65051  50.0024 151.9909 0000265 335.0177  25.0682 13.29327442 47576
HULIANWANG DIGUI-49     
1 65106U 25168A   26199.81206662 -.00000121  00000+0  70378-5 0  9992
2 65106  50.0007 212.5414 0008288 202.1201 157.9315 13.29322118 46895
HULIANWANG DIGUI-50     
1 65107U 25168B   26199.80366216 -.00000110  00000+0  29143-4 0  9995
2 65107  49.9977 212.4106 0008877 187.9691 172.1041 13.29321860 46891
HULIANWANG DIGUI-51     
1 65108U 25168C   26199.79494983 -.00000116  00000+0  17762-4 0  9997
2 65108  50.0014 212.4720 0010153 186.9824 173.0908 13.29324954 46895
HULIANWANG DIGUI-52     
1 65109U 25168D   26199.86203611 -.00000114  00000+0  20573-4 0  9994
2 65109  50.0007 212.1364 0010394 199.8344 160.2125 13.29322835 46903
HULIANWANG DIGUI-53     
1 65110U 25168E   26199.85349853 -.00000114  00000+0  21052-4 0  9997
2 65110  50.0015 212.1216 0008908 190.8288 169.2393 13.29326306 46909
HULIANWANG DIGUI-54     
1 65111U 25168F   26199.82863303 -.00000117  00000+0  15930-4 0  9997
2 65111  49.9966 211.8515 0010738 195.0401 165.0153 13.29326535 46900
HULIANWANG DIGUI-55     
1 65112U 25168G   26199.84524926 -.00000107  00000+0  36100-4 0  9996
2 65112  49.9971 211.9515 0011787 191.0281 169.0334 13.29322771 46908
HULIANWANG DIGUI-56     
1 65113U 25168H   26199.83696547 -.00000119  00000+0  10975-4 0  9990
2 65113  49.9963 211.8844 0011970 210.9000 149.1169 13.29322237 46900
HULIANWANG DIGUI-57     
1 65114U 25168J   26199.82030925 -.00000116  00000+0  17960-4 0  9990
2 65114  49.9991 211.8816 0009581 203.1422 156.9019 13.29326483 46916
HULIANWANG DIGUI-58     
1 65164U 25174A   26199.84569524  .00000042  00000+0  64695-4 0  9990
2 65164  86.4942 241.3211 0001834 100.7896 259.3445 13.24407626 44980
HULIANWANG DIGUI-59     
1 65165U 25174B   26199.85328772  .00000025  00000+0  24452-4 0  9998
2 65165  86.4903 241.1972 0001923  99.8131 260.3220 13.24407684 44986
