{"fetched_at":"2026-07-19T07:05:14.667Z","source":"https://celestrak.org/NORAD/elements/gp.php?NAME=HULIANWANG&FORMAT=JSON","constellation":"guowang","records":[{"OBJECT_NAME":"HULIANWANG DIGUI-44","OBJECT_ID":"2025-162E","EPOCH":"2026-07-18T20:36:00.227808","CLASSIFICATION_TYPE":"U","MEAN_MOTION":13.29318643,"ECCENTRICITY":0.0001428,"INCLINATION":50.0002,"RA_OF_ASC_NODE":152.0999,"ARG_OF_PERICENTER":342.8866,"MEAN_ANOMALY":17.1958,"EPHEMERIS_TYPE":0,"NORAD_CAT_ID":65047,"ELEMENT_SET_NO":999,"REV_AT_EPOCH":4758,"BSTAR":0.000036287,"MEAN_MOTION_DOT":-0.00000107,"MEAN_MOTION_DDOT":0},{"OBJECT_NAME":"HULIANWANG DIGUI-45","OBJECT_ID":"2025-162F","EPOCH":"2026-07-18T20:24:07.477056","CLASSIFICATION_TYPE":"U","MEAN_MOTION":13.29327247,"ECCENTRICITY":0.0000267,"INCLINATION":50.0032,"RA_OF_ASC_NODE":152.1413,"ARG_OF_PERICENTER":341.9535,"MEAN_ANOMALY":18.1328,"EPHEMERIS_TYPE":0,"NORAD_CAT_ID":65048,"ELEMENT_SET_NO":999,"REV_AT_EPOCH":4757,"BSTAR":0.000045264,"MEAN_MOTION_DOT":-0.00000103,"MEAN_MOTION_DDOT":0},{"OBJECT_NAME":"HULIANWANG DIGUI-46","OBJECT_ID":"2025-162G","EPOCH":"2026-07-18T20:12:07.784928","CLASSIFICATION_TYPE":"U","MEAN_MOTION":13.2932708,"ECCENTRICITY":0.0000248,"INCLINATION":50.005,"RA_OF_ASC_NODE":152.1487,"ARG_OF_PERICENTER":335.7293,"MEAN_ANOMALY":24.3567,"EPHEMERIS_TYPE":0,"NORAD_CAT_ID":65049,"ELEMENT_SET_NO":999,"REV_AT_EPOCH":4757,"BSTAR":0.000049414,"MEAN_MOTION_DOT":-0.00000101,"MEAN_MOTION_DDOT":0},{"OBJECT_NAME":"HULIANWANG DIGUI-47","OBJECT_ID":"2025-162H","EPOCH":"2026-07-18T20:00:06.235200","CLASSIFICATION_TYPE":"U","MEAN_MOTION":13.29326687,"ECCENTRICITY":0.0000256,"INCLINATION":50.0014,"RA_OF_ASC_NODE":152.007,"ARG_OF_PERICENTER":328.0253,"MEAN_ANOMALY":32.0604,"EPHEMERIS_TYPE":0,"NORAD_CAT_ID":65050,"ELEMENT_SET_NO":999,"REV_AT_EPOCH":4757,"BSTAR":0.000041359,"MEAN_MOTION_DOT":-0.00000105,"MEAN_MOTION_DDOT":0},{"OBJECT_NAME":"HULIANWANG DIGUI-48","OBJECT_ID":"2025-162J","EPOCH":"2026-07-18T19:48:03.928608","CLASSIFICATION_TYPE":"U","MEAN_MOTION":13.29327442,"ECCENTRICITY":0.0000265,"INCLINATION":50.0024,"RA_OF_ASC_NODE":151.9909,"ARG_OF_PERICENTER":335.0177,"MEAN_ANOMALY":25.0682,"EPHEMERIS_TYPE":0,"NORAD_CAT_ID":65051,"ELEMENT_SET_NO":999,"REV_AT_EPOCH":4757,"BSTAR":0.000036359,"MEAN_MOTION_DOT":-0.00000107,"MEAN_MOTION_DDOT":0},{"OBJECT_NAME":"HULIANWANG DIGUI-49","OBJECT_ID":"2025-168A","EPOCH":"2026-07-18T19:29:22.555968","CLASSIFICATION_TYPE":"U","MEAN_MOTION":13.29322118,"ECCENTRICITY":0.0008288,"INCLINATION":50.0007,"RA_OF_ASC_NODE":212.5414,"ARG_OF_PERICENTER":202.1201,"MEAN_ANOMALY":157.9315,"EPHEMERIS_TYPE":0,"NORAD_CAT_ID":65106,"ELEMENT_SET_NO":999,"REV_AT_EPOCH":4689,"BSTAR":0.0000070378,"MEAN_MOTION_DOT":-0.00000121,"MEAN_MOTION_DDOT":0},{"OBJECT_NAME":"HULIANWANG DIGUI-50","OBJECT_ID":"2025-168B","EPOCH":"2026-07-18T19:17:16.410624","CLASSIFICATION_TYPE":"U","MEAN_MOTION":13.2932186,"ECCENTRICITY":0.0008877,"INCLINATION":49.9977,"RA_OF_ASC_NODE":212.4106,"ARG_OF_PERICENTER":187.9691,"MEAN_ANOMALY":172.1041,"EPHEMERIS_TYPE":0,"NORAD_CAT_ID":65107,"ELEMENT_SET_NO":999,"REV_AT_EPOCH":4689,"BSTAR":0.000029143,"MEAN_MOTION_DOT":-0.0000011,"MEAN_MOTION_DDOT":0},{"OBJECT_NAME":"HULIANWANG DIGUI-51","OBJECT_ID":"2025-168C","EPOCH":"2026-07-18T19:04:43.665312","CLASSIFICATION_TYPE":"U","MEAN_MOTION":13.29324954,"ECCENTRICITY":0.0010153,"INCLINATION":50.0014,"RA_OF_ASC_NODE":212.472,"ARG_OF_PERICENTER":186.9824,"MEAN_ANOMALY":173.0908,"EPHEMERIS_TYPE":0,"NORAD_CAT_ID":65108,"ELEMENT_SET_NO":999,"REV_AT_EPOCH":4689,"BSTAR":0.000017762,"MEAN_MOTION_DOT":-0.00000116,"MEAN_MOTION_DDOT":0},{"OBJECT_NAME":"HULIANWANG DIGUI-52","OBJECT_ID":"2025-168D","EPOCH":"2026-07-18T20:41:19.919904","CLASSIFICATION_TYPE":"U","MEAN_MOTION":13.29322835,"ECCENTRICITY":0.0010394,"INCLINATION":50.0007,"RA_OF_ASC_NODE":212.1364,"ARG_OF_PERICENTER":199.8344,"MEAN_ANOMALY":160.2125,"EPHEMERIS_TYPE":0,"NORAD_CAT_ID":65109,"ELEMENT_SET_NO":999,"REV_AT_EPOCH":4690,"BSTAR":0.000020573,"MEAN_MOTION_DOT":-0.00000114,"MEAN_MOTION_DDOT":0},{"OBJECT_NAME":"HULIANWANG DIGUI-53","OBJECT_ID":"2025-168E","EPOCH":"2026-07-18T20:29:02.272992","CLASSIFICATION_TYPE":"U","MEAN_MOTION":13.29326306,"ECCENTRICITY":0.0008908,"INCLINATION":50.0015,"RA_OF_ASC_NODE":212.1216,"ARG_OF_PERICENTER":190.8288,"MEAN_ANOMALY":169.2393,"EPHEMERIS_TYPE":0,"NORAD_CAT_ID":65110,"ELEMENT_SET_NO":999,"REV_AT_EPOCH":4690,"BSTAR":0.000021052,"MEAN_MOTION_DOT":-0.00000114,"MEAN_MOTION_DDOT":0},{"OBJECT_NAME":"HULIANWANG DIGUI-54","OBJECT_ID":"2025-168F","EPOCH":"2026-07-18T19:53:13.893792","CLASSIFICATION_TYPE":"U","MEAN_MOTION":13.29326535,"ECCENTRICITY":0.0010738,"INCLINATION":49.9966,"RA_OF_ASC_NODE":211.8515,"ARG_OF_PERICENTER":195.0401,"MEAN_ANOMALY":165.0153,"EPHEMERIS_TYPE":0,"NORAD_CAT_ID":65111,"ELEMENT_SET_NO":999,"REV_AT_EPOCH":4690,"BSTAR":0.00001593,"MEAN_MOTION_DOT":-0.00000117,"MEAN_MOTION_DDOT":0},{"OBJECT_NAME":"HULIANWANG DIGUI-55","OBJECT_ID":"2025-168G","EPOCH":"2026-07-18T20:17:09.536064","CLASSIFICATION_TYPE":"U","MEAN_MOTION":13.29322771,"ECCENTRICITY":0.0011787,"INCLINATION":49.9971,"RA_OF_ASC_NODE":211.9515,"ARG_OF_PERICENTER":191.0281,"MEAN_ANOMALY":169.0334,"EPHEMERIS_TYPE":0,"NORAD_CAT_ID":65112,"ELEMENT_SET_NO":999,"REV_AT_EPOCH":4690,"BSTAR":0.0000361,"MEAN_MOTION_DOT":-0.00000107,"MEAN_MOTION_DDOT":0},{"OBJECT_NAME":"HULIANWANG DIGUI-56","OBJECT_ID":"2025-168H","EPOCH":"2026-07-18T20:05:13.816608","CLASSIFICATION_TYPE":"U","MEAN_MOTION":13.29322237,"ECCENTRICITY":0.001197,"INCLINATION":49.9963,"RA_OF_ASC_NODE":211.8844,"ARG_OF_PERICENTER":210.9,"MEAN_ANOMALY":149.1169,"EPHEMERIS_TYPE":0,"NORAD_CAT_ID":65113,"ELEMENT_SET_NO":999,"REV_AT_EPOCH":4690,"BSTAR":0.000010975,"MEAN_MOTION_DOT":-0.00000119,"MEAN_MOTION_DDOT":0},{"OBJECT_NAME":"HULIANWANG DIGUI-57","OBJECT_ID":"2025-168J","EPOCH":"2026-07-18T19:41:14.719200","CLASSIFICATION_TYPE":"U","MEAN_MOTION":13.29326483,"ECCENTRICITY":0.0009581,"INCLINATION":49.9991,"RA_OF_ASC_NODE":211.8816,"ARG_OF_PERICENTER":203.1422,"MEAN_ANOMALY":156.9019,"EPHEMERIS_TYPE":0,"NORAD_CAT_ID":65114,"ELEMENT_SET_NO":999,"REV_AT_EPOCH":4691,"BSTAR":0.00001796,"MEAN_MOTION_DOT":-0.00000116,"MEAN_MOTION_DDOT":0},{"OBJECT_NAME":"HULIANWANG DIGUI-58","OBJECT_ID":"2025-174A","EPOCH":"2026-07-18T20:17:48.068736","CLASSIFICATION_TYPE":"U","MEAN_MOTION":13.24407626,"ECCENTRICITY":0.0001834,"INCLINATION":86.4942,"RA_OF_ASC_NODE":241.3211,"ARG_OF_PERICENTER":100.7896,"MEAN_ANOMALY":259.3445,"EPHEMERIS_TYPE":0,"NORAD_CAT_ID":65164,"ELEMENT_SET_NO":999,"REV_AT_EPOCH":4498,"BSTAR":0.000064695,"MEAN_MOTION_DOT":4.2e-7,"MEAN_MOTION_DDOT":0},{"OBJECT_NAME":"HULIANWANG DIGUI-59","OBJECT_ID":"2025-174B","EPOCH":"2026-07-18T20:28:44.059008","CLASSIFICATION_TYPE":"U","MEAN_MOTION":13.24407684,"ECCENTRICITY":0.0001923,"INCLINATION":86.4903,"RA_OF_ASC_NODE":241.1972,"ARG_OF_PERICENTER":99.8131,"MEAN_ANOMALY":260.322,"EPHEMERIS_TYPE":0,"NORAD_CAT_ID":65165,"ELEMENT_SET_NO":999,"REV_AT_EPOCH":4498,"BSTAR":0.000024452,"MEAN_MOTION_DOT":2.5e-7,"MEAN_MOTION_DDOT":0}]}
